#dP2023  3  4 12  0  0.00000000      96 __u+U ITR00 EXT  IAC
## 2251 561600.00000000   900.00000000 60007 0.5000000000000
+  118   C06C07C08C09C10C11C12C13C14C16C19C20C21C22C23C24C25
+        C26C27C28C29C30C32C33C34C35C36C37C38C39C40C41C42C43
+        C44C45C46E02E03E04E05E07E08E09E10E11E12E14E15E18E19
+        E21E24E25E26E27E30E31E33E34E36G01G02G03G04G05G06G07
+        G08G09G10G11G12G13G14G15G16G17G18G19G20G21G22G23G24
+        G25G26G27G28G29G30G31G32J02J03J04R01R02R03R04R05R07
+        R08R09R11R12R13R14R15R16R17R18R19R20R21R22R24R25  0
++        10  9 11  9 10  9 13 10 10 10  8  7  9  8  8  9  7
++         8  7  8  8  9  9  8 10 15  8  7  9  9  7  8 10  8
++         8  9  8  6  6  7  6  6  7  6  6  7  6  6  8  7  7
++         7  7  5  9  6  5  7  8  6  6  6  7  7  5  6  7  7
++         7  7  7  7  7  7  6  7  6  6  8  7  6  6  8  5  5
++         6  6  6  7  6  7  7  7  9  9  9  6  8  8  9 10  7
++         9  9  8  8  8  8  7  9  8 10  8  8  8  8  7  9  0
%c M  cc GPS ccc cccc cccc cccc cccc ccccc ccccc ccccc ccccc
%c cc cc ccc ccc cccc cccc cccc cccc ccccc ccccc ccccc ccccc
%f  0.0000000  0.000000000  0.00000000000  0.000000000000000
%f  0.0000000  0.000000000  0.00000000000  0.000000000000000
%i    0    0    0    0      0      0      0      0         0
%i    0    0    0    0      0      0      0      0         0
/* IAC                                ULTRA-RAPID PREDICTION
/* S/V CLOCKS ARE ALIGNED TO GNSS TIME                      
/* G:C1WC2W R:C1PC2P E:C1XC5X C:C2IC6I J:C1CC2S             
/* PCV:IGS20_2247 OL/AL:FES2004  NONE     YN ORB:CoN CLK:CoN
*  2023 03 04 22 45  0.00000000
PC06  -4556.972345  25253.407497  33510.055058   -194.232282
PC07 -18394.714960  33309.468894 -18290.325671     27.117078
PC08  -5297.727308  40019.833888 -11832.852510    521.889206
PC09   4772.130318  29097.230650  30733.210754    916.881146
PC10 -11834.603333  33396.331327 -22922.039418     -1.802220
PC11  -1071.493729  15791.113525 -22915.039975    687.744639
PC12 -19359.698994   6188.810047 -19083.790258    487.131660
PC13  -1108.235431  41567.990441  -5927.792447    221.908492
PC14  -9555.101757  21647.771089  14860.788636    550.487411
PC16  -6480.413114  23876.288022  34382.862029    147.228114
PC19    199.497169 -18727.605041 -20650.360982   -895.062513
PC20  16115.382862 -21213.595178  -8239.753827    695.689186
PC21 -23551.316697  11049.264279 -10111.038286   -909.086746
PC22 -16649.430927  -5313.783128 -21756.725810   -602.441307
PC23  14952.587846  17248.045667 -16051.738576   -883.892135
PC24  -8114.069741  21071.054164  16362.914784   -335.621138
PC25   6285.734326  27165.583494   -796.976901     82.112005
PC26 -15704.290610   4387.187969  22627.752668    -87.228207
PC27  24736.315450   -467.407179  12907.017205    105.702202
PC28  25171.893818  11612.155195  -3219.902367     77.277187
PC29 -10656.338868 -17384.805377  19042.379051     89.130223
PC30  10798.213962 -12837.010019  22298.434224      0.992177
PC32  23463.589290 -11121.927806  10228.048125   -607.248579
PC33   -169.244747  18823.011429  20616.976200   -871.090665
PC34  -9437.305103  13503.639543 -22532.342873    119.346135
PC35 -25118.374805 -11322.842485   4272.170561    670.249571
PC36  -5195.432404 -27422.920382    127.200654   -585.863245
PC37  16104.627117  -2481.800375 -22648.622774   -808.660791
PC38 -10284.620810  36065.191704 -19087.867923     62.808528
PC39 -12765.229255  20523.080045  34575.325676     -2.026718
PC40 -25527.222133  28379.155840 -18167.553023    -16.662291
PC41  16228.009235   5896.347093  21979.446695   -683.704835
PC42 -16950.102077  21033.678800   7100.934536   -804.444533
PC43   9752.138523  17541.704266 -19409.702688     10.161817
PC44 -24778.895566   1358.633840 -12739.370290     34.079201
PC45 -14978.498583 -16916.194106  16386.392489    -68.021404
PC46   6979.583680 -22329.346208 -15251.395498    -37.561953
PE02  12487.344022 -26687.329100  -2964.554746     24.381560
PE03  14302.635362 -16526.997100 -19957.635300   -655.932380
PE04   7581.021551  15763.610275  23888.458953    -71.280299
PE05  28310.102651  -7571.529355  -4169.789210    -89.598945
PE07 -25484.269124  -5754.889658 -13912.830077    -27.420217
PE08  -7392.041496 -15655.671828 -24006.704727    -45.806611
PE09  25356.027972   5760.869070  14138.734833   -857.298894
PE10  19021.354148  22679.955573    319.145326   -516.711624
PE11  22298.933882  16312.456569  10646.145726   1120.389618
PE12  12991.600116  25037.234068  -9015.633593   -444.962993
PE14   3491.500740 -15362.617380  18176.176642    159.121819
PE15 -12780.097163 -24993.784193   9377.511216     -5.202863
PE18 -11021.731555  19486.001015 -22904.192369   -321.384678
PE19 -16995.304321  15691.869165  18475.950803  -3088.557026
PE21 -18754.834972  13440.688328  18528.974113   -515.616815
PE24  14303.796026   9271.673171 -24217.305990  -1147.153094
PE25  18788.534008 -13124.394246 -18740.082548   -600.643448
PE26 -18152.264815   1844.393730 -23299.130068     35.911526
PE27 -14656.765038  -8364.124122  24314.452012   -526.805328
PE30  -1415.153366 -25359.401331  15200.819406  -1290.820884
PE31   1979.844442  24996.284002 -15723.253411   -517.657618
PE33  -4061.021804  18263.171495 -22935.167623   -450.285862
PE34   3902.746011 -18371.084939  22877.019245    -33.199307
PE36  18474.231337   -952.848530  23116.994856    -21.329659
PG01  19270.187339  10229.344559  15073.799476    206.107654
PG02 -19495.818653  -5259.296302 -16504.771897   -616.706096
PG03  15936.963293   -810.413270  21087.955047   -355.021425
PG04  26374.929103    647.504026   3564.030278    -14.424717
PG05  -8833.293364 -15331.684896 -19939.388127   -118.216857
PG06  -1346.475863 -20690.587938  16609.318855    578.498737
PG07  15431.532278  -4075.932901 -20860.852104    229.593090
PG08  21152.086298   7518.106797 -14557.949098   -111.373324
PG09  24363.023624  -8064.688035  -7010.411270   -206.965619
PG10 -11030.370624  23963.171782   -556.052685    -27.217002
PG11 -11560.156485 -23504.685329   4518.112238   -120.847276
PG12 -15405.943971  -2292.629801  21219.385626   -347.576149
PG13 -14340.619116 -13086.293915 -18388.773701    485.474329
PG14  13525.295424 -22544.461312  -3226.144142    -12.456221
PG15 -21998.082527  -5623.222364 -14448.494956     18.679837
PG16   5316.512082  17725.860155 -19176.783439   -517.196715
PG17  14779.120067 -13022.206697  18297.124015    703.611413
PG18 -12442.886020   8267.938803 -21958.822948   -165.780936
PG19   3754.854376 -14637.477028  21586.344685    285.682116
PG20  -3042.046464 -23453.894594 -12258.064503    447.020029
PG21  20841.121412  15371.593047   8182.637733    154.241678
PG22    240.667170  15375.312468  22095.621482    438.908916
PG23 -15937.862743  17551.962915 -11819.050793      8.921329
PG24 -21068.454219 -12333.787755  10601.724499    -98.501254
PG25 -17414.217000   8929.569744  17517.552597    425.043864
PG26  -2677.107831  24940.422417  -8304.279658    241.860389
PG27  10880.790130  13134.256969 -20704.478050     88.408886
PG28    131.160720  19967.982736  17484.421671     33.556945
PG29 -26058.570321   3497.865975  -4099.094825   -589.260995
PG30   6183.552802 -16433.375974 -19758.073561   -528.179818
PG31   2800.851569  21864.948955  14325.471187   -210.816982
PG32 -11079.488680  14778.333182  19182.664067   -414.007202
PJ02 -32139.846849  25360.725125  15109.636902     -1.094305
PJ03 -25437.610127  16884.463326 -24481.675673      0.654289
PJ04 -25400.318697  33685.852047   3689.194399     94.178475
PR01  21254.510122 -13986.500213  -1719.112680     24.149466
PR02   9468.898047 -15166.556232 -18174.569674    -23.195607
PR03  -7879.528387  -7926.986304 -22874.821332     73.569764
PR04 -20376.715246   3630.854503 -14867.040234    178.112636
PR05 -21864.188492  13053.233157   1278.924727    108.734179
PR07   8726.588761   7419.260682  22840.111225     51.090724
PR08  20494.926828  -3748.091445  14800.433798    -69.725382
PR09  -1178.107708  25245.835108   3753.152689    107.346597
PR11  10731.007508   5765.651158 -22407.130392    -13.153040
PR12   8896.374984 -14773.592273 -18784.701240     25.420865
PR13   2217.248020 -24801.004004  -5570.652078    -32.653932
PR14  -6654.563020 -20811.683557  13155.368098     24.388591
PR15 -10904.741231  -4590.121404  22610.282115     90.679516
PR16  -8764.319362  14518.404973  19068.407722     11.976250
PR17 -17873.325090 -15485.643337   9610.864050    609.923510
PR18 -22467.871881  -9683.049173  -7096.791318     69.814843
PR19 -16486.000483   -238.153018 -19459.949150   -224.076770
PR20   1796.675821  12728.725095 -22032.512835    -88.760164
PR21  18759.941713  15301.298937  -8009.116739   -377.873269
PR22  22166.887298   9868.913706   7927.427569     73.518338
PR24  -2557.083879 -13296.516454  21637.008047    151.274022
PR25  16859.186194  16434.028202  -9793.529557     56.790874
EOF
